SKYSAT-C4               
1 41771U 16058B   26188.03662706  .00013245  00000+0  24416-3 0  9999
2 41771  96.9169 208.9844 0003106 131.0059 229.1462 15.49243888548540
SKYSAT-C5               
1 41772U 16058C   26187.92650127  .00006073  00000+0  18242-3 0  9992
2 41772  97.0459 227.6879 0002457 176.3166 183.8096 15.34766054546771
SKYSAT-C2               
1 41773U 16058D   26187.59401764  .00010488  00000+0  24350-3 0  9999
2 41773  97.0163 208.9626 0002560  24.3070 335.8299 15.42537650548040
SKYSAT-C3               
1 41774U 16058E   26187.98968319  .00018862  00000+0  29898-3 0  9993
2 41774  96.9001 218.0841 0001883 133.3659 226.7752 15.53432955549184
ALSAT-1B                
1 41785U 16059C   26188.22131987  .00000269  00000+0  49970-4 0  9993
2 41785  97.7754 196.1204 0009721 153.2841 206.8870 14.72290628523521
PATHFINDER 1            
1 41787U 16059E   26187.90768481  .00000543  00000+0  10301-3 0  9994
2 41787  97.8171 186.2942 0029369 141.0911 219.2416 14.67686407522609
SCATSAT 1               
1 41790U 16059H   26188.16397184  .00001178  00000+0  16084-3 0  9994
2 41790  98.1180 252.1355 0054618 182.2711 177.8260 14.79573399104541
GOKTURK 1A              
1 41875U 16073A   26188.15120552  .00000672  00000+0  14083-3 0  9991
2 41875  98.1220  82.5104 0001414  78.1321 282.0039 14.62791004511747
RESOURCESAT-2A          
1 41877U 16074A   26188.20015447 -.00000039  00000+0  23814-5 0  9998
2 41877  98.7516 261.5407 0002811  45.2623 314.8783 14.21606794497143
CARTOSAT-2D             
1 41948U 17008A   26188.18106683  .00004057  00000+0  19568-3 0  9997
2 41948  97.4088 247.1124 0005212 163.1620 196.9789 15.19244871520619
SENTINEL-2B             
1 42063U 17013A   26188.20749049 -.00000116  00000+0 -27602-4 0  9997
2 42063  98.5681 262.6992 0001177  90.5457 269.5861 14.30813168487502
CARTOSAT-2E             
1 42767U 17036C   26187.40829304  .00002997  00000+0  14513-3 0  9990
2 42767  97.4260 246.8938 0002751 216.0801 144.0249 15.19324226501060
FORMOSAT-5              
1 42920U 17049A   26188.19013351  .00000124  00000+0  42425-4 0  9993
2 42920  98.2248 263.0551 0011872  27.8421 332.3407 14.50906255469577
SENTINEL-5P             
1 42969U 17064A   26187.72648153  .00000049  00000+0  44456-4 0  9997
2 42969  98.7927 129.7191 0001099  92.1824 267.9478 14.19522294452338
SKYSAT-C11              
1 42987U 17068A   26187.96261653  .00023637  00000+0  30510-3 0  9996
2 42987  97.4374 337.6719 0000652 158.6283 201.5000 15.58985087486325
SKYSAT-C10              
1 42988U 17068B   26187.91668502  .00008421  00000+0  25039-3 0  9990
2 42988  97.4529 324.9630 0001286 108.8962 251.2421 15.35000808485382
SKYSAT-C9               
1 42989U 17068C   26187.90409625  .00009833  00000+0  23186-3 0  9998
2 42989  97.4448 326.0753 0009196  71.2342 288.9902 15.42070594485798
SKYSAT-C8               
1 42990U 17068D   26187.92284444  .00008297  00000+0  22874-3 0  9998
2 42990  97.4547 324.8452 0001190  97.2210 262.9170 15.37378325485347
SKYSAT-C7               
1 42991U 17068E   26188.17743157  .00007466  00000+0  20626-3 0  9998
2 42991  97.4556 326.0941 0006415  47.3462 312.8322 15.37334035485440
SKYSAT-C6               
1 42992U 17068F   26187.84405865  .00007063  00000+0  21494-3 0  9990
2 42992  97.4593 325.6474 0005175  98.0582 262.1248 15.34319314485338
CARTOSAT-2F             
1 43111U 18004A   26188.16545580  .00002445  00000+0  11934-3 0  9997
2 43111  97.4774 247.6037 0002098 153.9853 206.1488 15.19229772470366
GAOFEN-1 02             
1 43259U 18031A   26188.22323950  .00001053  00000+0  15866-3 0  9994
2 43259  98.0512 250.6934 0001901 328.9481  31.1616 14.76467140445657
GAOFEN-1 03             
1 43260U 18031B   26188.20128894  .00000593  00000+0  92617-4 0  9992
2 43260  98.0508 250.5277 0003010  36.2511 323.8902 14.76454736445644
GAOFEN-1 04             
1 43262U 18031D   26188.17703691  .00000410  00000+0  66308-4 0  9990
2 43262  98.0513 250.6969 0001613  59.3313 300.8055 14.76463855445639
SENTINEL-3B             
1 43437U 18039A   26188.17671325  .00000082  00000+0  51893-4 0  9998
2 43437  98.6239 255.4214 0000963 118.9874 241.1403 14.26740486426974
GAOFEN-5 01             
1 43461U 18043A   26187.92812405  .00000306  00000+0  72983-4 0  9990
2 43461  98.4582 159.9303 0002527  48.2005 311.9410 14.60619540434579
GAOFEN-6                
1 43484U 18048A   26187.58915277 -.00000071  00000+0 -25920-5 0  9994
2 43484  98.0955 250.2710 0012040 105.7369 254.5169 14.76375241436258
GAOFEN-11 01            
1 43585U 18063A   26188.17925236  .00014930  00000+0  21680-3 0  9999
2 43585  97.1276 255.0088 0002347 236.7317 123.3714 15.55896929443452
ICESAT-2                
1 43613U 18070A   26188.12627398  .00007173  00000+0  26055-3 0  9994
2 43613  92.0084 296.3673 0005950  82.0480 278.1445 15.28252602435500
HYSIS                   
1 43719U 18096A   26188.17436679  .00001082  00000+0  15470-3 0  9996
2 43719  97.9826 254.7650 0001869  88.4280 271.7145 14.78661364410378
KAZSTSAT                
1 43783U 18099AB  26188.04465603  .00001617  00000+0  13466-3 0  9992
2 43783  97.4311 219.0757 0007950  11.5065 348.6339 14.99939036414280
