OBJECT_NAME,OBJECT_ID,EPOCH,MEAN_MOTION,ECCENTRICITY,INCLINATION,RA_OF_ASC_NODE,ARG_OF_PERICENTER,MEAN_ANOMALY,EPHEMERIS_TYPE,CLASSIFICATION_TYPE,NORAD_CAT_ID,ELEMENT_SET_NO,REV_AT_EPOCH,BSTAR,MEAN_MOTION_DOT,MEAN_MOTION_DDOT
SKYSAT-C4,2016-058B,2026-07-07T00:52:44.577984,15.49243888,.0003106,96.9169,208.9844,131.0059,229.1462,0,U,41771,999,54854,.24416E-3,.13245E-3,0
SKYSAT-C5,2016-058C,2026-07-06T22:14:09.709728,15.34766054,.0002457,97.0459,227.6879,176.3166,183.8096,0,U,41772,999,54677,.18242E-3,.6073E-4,0
SKYSAT-C2,2016-058D,2026-07-06T14:15:23.124096,15.42537650,.000256,97.0163,208.9626,24.3070,335.8299,0,U,41773,999,54804,.2435E-3,.10488E-3,0
SKYSAT-C3,2016-058E,2026-07-06T23:45:08.627616,15.53432955,.0001883,96.9001,218.0841,133.3659,226.7752,0,U,41774,999,54918,.29898E-3,.18862E-3,0
ALSAT-1B,2016-059C,2026-07-07T05:18:42.036768,14.72290628,.0009721,97.7754,196.1204,153.2841,206.8870,0,U,41785,999,52352,.4997E-4,.269E-5,0
PATHFINDER 1,2016-059E,2026-07-06T21:47:03.967584,14.67686407,.0029369,97.8171,186.2942,141.0911,219.2416,0,U,41787,999,52260,.10301E-3,.543E-5,0
SCATSAT 1,2016-059H,2026-07-07T03:56:07.166976,14.79573399,.0054618,98.1180,252.1355,182.2711,177.8260,0,U,41790,999,10454,.16084E-3,.1178E-4,0
GOKTURK 1A,2016-073A,2026-07-07T03:37:44.156928,14.62791004,.0001414,98.1220,82.5104,78.1321,282.0039,0,U,41875,999,51174,.14083E-3,.672E-5,0
RESOURCESAT-2A,2016-074A,2026-07-07T04:48:13.346208,14.21606794,.0002811,98.7516,261.5407,45.2623,314.8783,0,U,41877,999,49714,.23814E-5,-.39E-6,0
CARTOSAT-2D,2017-008A,2026-07-07T04:20:44.174112,15.19244871,.0005212,97.4088,247.1124,163.1620,196.9789,0,U,41948,999,52061,.19568E-3,.4057E-4,0
SENTINEL-2B,2017-013A,2026-07-07T04:58:47.178336,14.30813168,.0001177,98.5681,262.6992,90.5457,269.5861,0,U,42063,999,48750,-.27602E-4,-.116E-5,0
CARTOSAT-2E,2017-036C,2026-07-06T09:47:56.518656,15.19324226,.00027513,97.4260,246.8938,216.0801,144.0249,0,U,42767,999,50106,.14512509E-3,.2997E-4,0
FORMOSAT-5,2017-049A,2026-07-07T04:33:47.535264,14.50906255,.0011872,98.2248,263.0551,27.8421,332.3407,0,U,42920,999,46957,.42425E-4,.124E-5,0
SENTINEL-5P,2017-064A,2026-07-06T17:26:08.004192,14.19522294,.0001099,98.7927,129.7191,92.1824,267.9478,0,U,42969,999,45233,.44456E-4,.49E-6,0
SKYSAT-C11,2017-068A,2026-07-06T23:06:10.068192,15.58985087,.0000652,97.4374,337.6719,158.6283,201.5000,0,U,42987,999,48632,.3051E-3,.23637E-3,0
SKYSAT-C10,2017-068B,2026-07-06T22:00:01.585728,15.35000808,.0001286,97.4529,324.9630,108.8962,251.2421,0,U,42988,999,48538,.25039E-3,.8421E-4,0
SKYSAT-C9,2017-068C,2026-07-06T21:41:53.916000,15.42070594,.0009196,97.4448,326.0753,71.2342,288.9902,0,U,42989,999,48579,.23186E-3,.9833E-4,0
SKYSAT-C8,2017-068D,2026-07-06T22:08:53.759616,15.37378325,.000119,97.4547,324.8452,97.2210,262.9170,0,U,42990,999,48534,.22874E-3,.8297E-4,0
SKYSAT-C7,2017-068E,2026-07-07T04:15:30.087648,15.37334035,.0006415,97.4556,326.0941,47.3462,312.8322,0,U,42991,999,48544,.20626E-3,.7466E-4,0
SKYSAT-C6,2017-068F,2026-07-06T20:15:26.667360,15.34319314,.0005175,97.4593,325.6474,98.0582,262.1248,0,U,42992,999,48533,.21494E-3,.7063E-4,0
CARTOSAT-2F,2018-004A,2026-07-07T03:58:15.381120,15.19229772,.0002098,97.4774,247.6037,153.9853,206.1488,0,U,43111,999,47036,.11934E-3,.2445E-4,0
GAOFEN-1 02,2018-031A,2026-07-07T05:21:27.892800,14.76467140,.0001901,98.0512,250.6934,328.9481,31.1616,0,U,43259,999,44565,.15866E-3,.1053E-4,0
GAOFEN-1 03,2018-031B,2026-07-07T04:49:51.364416,14.76454736,.000301,98.0508,250.5277,36.2511,323.8902,0,U,43260,999,44564,.92617E-4,.593E-5,0
GAOFEN-1 04,2018-031D,2026-07-07T04:14:55.989024,14.76463855,.0001613,98.0513,250.6969,59.3313,300.8055,0,U,43262,999,44563,.66308E-4,.41E-5,0
SENTINEL-3B,2018-039A,2026-07-07T04:14:28.024800,14.26740486,.0000963,98.6239,255.4214,118.9874,241.1403,0,U,43437,999,42697,.51893E-4,.82E-6,0
GAOFEN-5 01,2018-043A,2026-07-06T22:16:29.917920,14.60619540,.0002527,98.4582,159.9303,48.2005,311.9410,0,U,43461,999,43457,.72983E-4,.306E-5,0
GAOFEN-6,2018-048A,2026-07-06T14:08:22.799328,14.76375241,.001204,98.0955,250.2710,105.7369,254.5169,0,U,43484,999,43625,-.2592E-5,-.71E-6,0
GAOFEN-11 01,2018-063A,2026-07-07T04:18:07.403904,15.55896929,.0002347,97.1276,255.0088,236.7317,123.3714,0,U,43585,999,44345,.2168E-3,.1493E-3,0
ICESAT-2,2018-070A,2026-07-07T03:01:50.071872,15.28252602,.000595,92.0084,296.3673,82.0480,278.1445,0,U,43613,999,43550,.26055E-3,.7173E-4,0
HYSIS,2018-096A,2026-07-07T04:11:05.290656,14.78661364,.0001869,97.9826,254.7650,88.4280,271.7145,0,U,43719,999,41037,.1547E-3,.1082E-4,0
KAZSTSAT,2018-099AB,2026-07-07T01:04:18.280992,14.99939036,.000795,97.4311,219.0757,11.5065,348.6339,0,U,43783,999,41428,.13466E-3,.1617E-4,0
